STARLINK-5528           
1 56890U 23083Q   26072.95630988  .00004379  00000+0  33871-3 0  9996
2 56890  43.0034  58.4664 0000665 297.9298  62.1477 15.02574181152313
STARLINK-6213           
1 56891U 23083R   26073.91668981  .00065973  00000+0  43283-2 0  9992
2 56891  43.0007  53.2610 0000736 301.5924 215.0207 15.06810694  5824
STARLINK-6219           
1 56892U 23083S   26073.94574522  .00000721  00000+0  68414-4 0  9998
2 56892  43.0040  52.9893 0001337 273.5343  86.5346 15.02540778152469
STARLINK-6216           
1 56893U 23083T   26072.35978223  .00056615  00000+0  41247-2 0  9995
2 56893  43.0024  61.7319 0001307 233.6143 126.4579 15.02969008152345
STARLINK-6144           
1 56894U 23083U   26073.94672636  .00008517  00000+0  64324-3 0  9991
2 56894  42.9997  52.9931 0001146  54.1783 305.9166 15.02625962152582
STARLINK-6208           
1 56895U 23083V   26073.94353207 -.00000830  00000+0 -46387-4 0  9994
2 56895  43.0027  52.9741 0001159 262.0931  97.9780 15.02530622152462
STARLINK-6202           
1 56896U 23083W   26072.34362180  .00000207  00000+0  30415-4 0  9999
2 56896  43.0041  61.6086 0001104 270.7996  89.2720 15.02536962152332
STARLINK-6200           
1 56897U 23083X   26073.94235393  .00004452  00000+0  34400-3 0  9995
2 56897  43.0037  52.9604 0000835   8.1292 351.9564 15.02581720152583
STARLINK-6205           
1 56898U 23083Y   26073.91668981  .00599372  00000+0  26069-1 0  9996
2 56898  43.0020  51.9047 0001070 268.1602 102.1366 15.19171766  5824
STARLINK-6203           
1 56899U 23083Z   26073.91668981  .01571562  00000+0  56150-1 0  9993
2 56899  42.9999  51.6875 0001094 255.6937 204.8372 15.24977167  5824
STARLINK-6207           
1 56900U 23083AA  26073.91668981  .00093581  00000+0  50192-2 0  9996
2 56900  43.0005  40.3883 0000819 305.7653 161.5869 15.13936137  5726
STARLINK-6185           
1 56901U 23083AB  26073.91668981  .00606106  00000+0  26089-1 0  9997
2 56901  43.0019  51.8528 0001141 267.7489 124.0997 15.19503904  5722
STARLINK-6195           
1 56902U 23083AC  26073.91668981  .00553579  00000+0  29528-1 0  9994
2 56902  43.0009  40.4710 0001154 255.0775 176.7212 15.12157977  5778
STARLINK-6192           
1 56903U 23083AD  26073.91668981  .01668204  00000+0  63004-1 0  9995
2 56903  42.9998  51.8875 0001406 267.7098 108.0306 15.22903531  5778
STARLINK-6193           
1 56904U 23083AE  26073.91668981  .00085732  00000+0  47855-2 0  9991
2 56904  43.0010  40.1740 0000744 280.9666 273.1310 15.12558743  5689
STARLINK-6183           
1 56905U 23083AF  26073.91668981  .00091890  00000+0  46211-2 0  9999
2 56905  42.9997  40.1410 0000764 243.3306 327.9043 15.16220542  5725
