[{"OBJECT_NAME":"STARLINK-5528","OBJECT_ID":"2023-083Q","EPOCH":"2026-03-13T22:57:05.173632","MEAN_MOTION":15.02574181,"ECCENTRICITY":6.658e-5,"INCLINATION":43.0034,"RA_OF_ASC_NODE":58.4664,"ARG_OF_PERICENTER":297.9298,"MEAN_ANOMALY":62.1477,"EPHEMERIS_TYPE":0,"CLASSIFICATION_TYPE":"U","NORAD_CAT_ID":56890,"ELEMENT_SET_NO":999,"REV_AT_EPOCH":15231,"BSTAR":0.00033871007,"MEAN_MOTION_DOT":4.379e-5,"MEAN_MOTION_DDOT":0},{"OBJECT_NAME":"STARLINK-6213","OBJECT_ID":"2023-083R","EPOCH":"2026-03-14T22:00:01.999584","MEAN_MOTION":15.06810694,"ECCENTRICITY":7.367e-5,"INCLINATION":43.0007,"RA_OF_ASC_NODE":53.261,"ARG_OF_PERICENTER":301.5924,"MEAN_ANOMALY":215.0207,"EPHEMERIS_TYPE":0,"CLASSIFICATION_TYPE":"U","NORAD_CAT_ID":56891,"ELEMENT_SET_NO":999,"REV_AT_EPOCH":582,"BSTAR":0.0043282596,"MEAN_MOTION_DOT":0.00065973,"MEAN_MOTION_DDOT":0},{"OBJECT_NAME":"STARLINK-6219","OBJECT_ID":"2023-083S","EPOCH":"2026-03-14T22:41:52.387008","MEAN_MOTION":15.02540778,"ECCENTRICITY":0.0001337,"INCLINATION":43.004,"RA_OF_ASC_NODE":52.9893,"ARG_OF_PERICENTER":273.5343,"MEAN_ANOMALY":86.5346,"EPHEMERIS_TYPE":0,"CLASSIFICATION_TYPE":"U","NORAD_CAT_ID":56892,"ELEMENT_SET_NO":999,"REV_AT_EPOCH":15246,"BSTAR":6.8413906e-5,"MEAN_MOTION_DOT":7.21e-6,"MEAN_MOTION_DDOT":0},{"OBJECT_NAME":"STARLINK-6216","OBJECT_ID":"2023-083T","EPOCH":"2026-03-13T08:38:05.184672","MEAN_MOTION":15.02969008,"ECCENTRICITY":0.00013073,"INCLINATION":43.0024,"RA_OF_ASC_NODE":61.7319,"ARG_OF_PERICENTER":233.6143,"MEAN_ANOMALY":126.4579,"EPHEMERIS_TYPE":0,"CLASSIFICATION_TYPE":"U","NORAD_CAT_ID":56893,"ELEMENT_SET_NO":999,"REV_AT_EPOCH":15234,"BSTAR":0.0041247006,"MEAN_MOTION_DOT":0.00056615,"MEAN_MOTION_DDOT":0},{"OBJECT_NAME":"STARLINK-6144","OBJECT_ID":"2023-083U","EPOCH":"2026-03-14T22:43:17.157504","MEAN_MOTION":15.02625962,"ECCENTRICITY":0.00011461,"INCLINATION":42.9997,"RA_OF_ASC_NODE":52.9931,"ARG_OF_PERICENTER":54.1783,"MEAN_ANOMALY":305.9166,"EPHEMERIS_TYPE":0,"CLASSIFICATION_TYPE":"U","NORAD_CAT_ID":56894,"ELEMENT_SET_NO":999,"REV_AT_EPOCH":15258,"BSTAR":0.00064324313,"MEAN_MOTION_DOT":8.517e-5,"MEAN_MOTION_DDOT":0},{"OBJECT_NAME":"STARLINK-6208","OBJECT_ID":"2023-083V","EPOCH":"2026-03-14T22:38:41.170848","MEAN_MOTION":15.02530622,"ECCENTRICITY":0.00011595,"INCLINATION":43.0027,"RA_OF_ASC_NODE":52.9741,"ARG_OF_PERICENTER":262.0931,"MEAN_ANOMALY":97.978,"EPHEMERIS_TYPE":0,"CLASSIFICATION_TYPE":"U","NORAD_CAT_ID":56895,"ELEMENT_SET_NO":999,"REV_AT_EPOCH":15246,"BSTAR":-4.638672e-5,"MEAN_MOTION_DOT":-8.3e-6,"MEAN_MOTION_DDOT":0},{"OBJECT_NAME":"STARLINK-6202","OBJECT_ID":"2023-083W","EPOCH":"2026-03-13T08:14:48.923520","MEAN_MOTION":15.02536962,"ECCENTRICITY":0.00011047,"INCLINATION":43.0041,"RA_OF_ASC_NODE":61.6086,"ARG_OF_PERICENTER":270.7996,"MEAN_ANOMALY":89.272,"EPHEMERIS_TYPE":0,"CLASSIFICATION_TYPE":"U","NORAD_CAT_ID":56896,"ELEMENT_SET_NO":999,"REV_AT_EPOCH":15233,"BSTAR":3.0414894e-5,"MEAN_MOTION_DOT":2.07e-6,"MEAN_MOTION_DDOT":0},{"OBJECT_NAME":"STARLINK-6200","OBJECT_ID":"2023-083X","EPOCH":"2026-03-14T22:36:59.379552","MEAN_MOTION":15.0258172,"ECCENTRICITY":8.351e-5,"INCLINATION":43.0037,"RA_OF_ASC_NODE":52.9604,"ARG_OF_PERICENTER":8.1292,"MEAN_ANOMALY":351.9564,"EPHEMERIS_TYPE":0,"CLASSIFICATION_TYPE":"U","NORAD_CAT_ID":56897,"ELEMENT_SET_NO":999,"REV_AT_EPOCH":15258,"BSTAR":0.00034400011,"MEAN_MOTION_DOT":4.452e-5,"MEAN_MOTION_DDOT":0},{"OBJECT_NAME":"STARLINK-6205","OBJECT_ID":"2023-083Y","EPOCH":"2026-03-14T22:00:01.999584","MEAN_MOTION":15.19171766,"ECCENTRICITY":0.00010704,"INCLINATION":43.002,"RA_OF_ASC_NODE":51.9047,"ARG_OF_PERICENTER":268.1602,"MEAN_ANOMALY":102.1366,"EPHEMERIS_TYPE":0,"CLASSIFICATION_TYPE":"U","NORAD_CAT_ID":56898,"ELEMENT_SET_NO":999,"REV_AT_EPOCH":582,"BSTAR":0.026068761,"MEAN_MOTION_DOT":0.00599372,"MEAN_MOTION_DDOT":0},{"OBJECT_NAME":"STARLINK-6203","OBJECT_ID":"2023-083Z","EPOCH":"2026-03-14T22:00:01.999584","MEAN_MOTION":15.24977167,"ECCENTRICITY":0.00010943,"INCLINATION":42.9999,"RA_OF_ASC_NODE":51.6875,"ARG_OF_PERICENTER":255.6937,"MEAN_ANOMALY":204.8372,"EPHEMERIS_TYPE":0,"CLASSIFICATION_TYPE":"U","NORAD_CAT_ID":56899,"ELEMENT_SET_NO":999,"REV_AT_EPOCH":582,"BSTAR":0.056150001,"MEAN_MOTION_DOT":0.01571562,"MEAN_MOTION_DDOT":0},{"OBJECT_NAME":"STARLINK-6207","OBJECT_ID":"2023-083AA","EPOCH":"2026-03-14T22:00:01.999584","MEAN_MOTION":15.13936137,"ECCENTRICITY":8.196e-5,"INCLINATION":43.0005,"RA_OF_ASC_NODE":40.3883,"ARG_OF_PERICENTER":305.7653,"MEAN_ANOMALY":161.5869,"EPHEMERIS_TYPE":0,"CLASSIFICATION_TYPE":"U","NORAD_CAT_ID":56900,"ELEMENT_SET_NO":999,"REV_AT_EPOCH":572,"BSTAR":0.0050191952,"MEAN_MOTION_DOT":0.00093581,"MEAN_MOTION_DDOT":0},{"OBJECT_NAME":"STARLINK-6185","OBJECT_ID":"2023-083AB","EPOCH":"2026-03-14T22:00:01.999584","MEAN_MOTION":15.19503904,"ECCENTRICITY":0.00011413,"INCLINATION":43.0019,"RA_OF_ASC_NODE":51.8528,"ARG_OF_PERICENTER":267.7489,"MEAN_ANOMALY":124.0997,"EPHEMERIS_TYPE":0,"CLASSIFICATION_TYPE":"U","NORAD_CAT_ID":56901,"ELEMENT_SET_NO":999,"REV_AT_EPOCH":572,"BSTAR":0.026088952,"MEAN_MOTION_DOT":0.00606106,"MEAN_MOTION_DDOT":0},{"OBJECT_NAME":"STARLINK-6195","OBJECT_ID":"2023-083AC","EPOCH":"2026-03-14T22:00:01.999584","MEAN_MOTION":15.12157977,"ECCENTRICITY":0.00011544,"INCLINATION":43.0009,"RA_OF_ASC_NODE":40.471,"ARG_OF_PERICENTER":255.0775,"MEAN_ANOMALY":176.7212,"EPHEMERIS_TYPE":0,"CLASSIFICATION_TYPE":"U","NORAD_CAT_ID":56902,"ELEMENT_SET_NO":999,"REV_AT_EPOCH":577,"BSTAR":0.029528437,"MEAN_MOTION_DOT":0.00553579,"MEAN_MOTION_DDOT":0},{"OBJECT_NAME":"STARLINK-6192","OBJECT_ID":"2023-083AD","EPOCH":"2026-03-14T22:00:01.999584","MEAN_MOTION":15.22903531,"ECCENTRICITY":0.00014069,"INCLINATION":42.9998,"RA_OF_ASC_NODE":51.8875,"ARG_OF_PERICENTER":267.7098,"MEAN_ANOMALY":108.0306,"EPHEMERIS_TYPE":0,"CLASSIFICATION_TYPE":"U","NORAD_CAT_ID":56903,"ELEMENT_SET_NO":999,"REV_AT_EPOCH":577,"BSTAR":0.063003695,"MEAN_MOTION_DOT":0.01668204,"MEAN_MOTION_DDOT":0},{"OBJECT_NAME":"STARLINK-6193","OBJECT_ID":"2023-083AE","EPOCH":"2026-03-14T22:00:01.999584","MEAN_MOTION":15.12558743,"ECCENTRICITY":7.448e-5,"INCLINATION":43.001,"RA_OF_ASC_NODE":40.174,"ARG_OF_PERICENTER":280.9666,"MEAN_ANOMALY":273.131,"EPHEMERIS_TYPE":0,"CLASSIFICATION_TYPE":"U","NORAD_CAT_ID":56904,"ELEMENT_SET_NO":999,"REV_AT_EPOCH":568,"BSTAR":0.0047854775,"MEAN_MOTION_DOT":0.00085732,"MEAN_MOTION_DDOT":0},{"OBJECT_NAME":"STARLINK-6183","OBJECT_ID":"2023-083AF","EPOCH":"2026-03-14T22:00:01.999584","MEAN_MOTION":15.16220542,"ECCENTRICITY":7.641e-5,"INCLINATION":42.9997,"RA_OF_ASC_NODE":40.141,"ARG_OF_PERICENTER":243.3306,"MEAN_ANOMALY":327.9043,"EPHEMERIS_TYPE":0,"CLASSIFICATION_TYPE":"U","NORAD_CAT_ID":56905,"ELEMENT_SET_NO":999,"REV_AT_EPOCH":572,"BSTAR":0.0046211089,"MEAN_MOTION_DOT":0.0009189,"MEAN_MOTION_DDOT":0}]
